IRIDIUM 166             
1 43570U 18061B   24038.56081678  .00000172  00000+0  54394-4 0  9991
2 43570  86.3926  56.4004 0001871  97.5606 262.5802 14.34215949290046
IRIDIUM 158             
1 43571U 18061C   24038.59886978  .00000241  00000+0  78953-4 0  9995
2 43571  86.3926  56.3938 0002244  97.6916 262.4535 14.34218160290019
IRIDIUM 165             
1 43572U 18061D   24038.55447217  .00000061  00000+0  14613-4 0  9994
2 43572  86.3929  56.4425 0002228  99.2428 260.9020 14.34217089290036
IRIDIUM 155             
1 43573U 18061E   24038.58618425  .00000099  00000+0  28172-4 0  9995
2 43573  86.3923  56.3405 0001996  87.5856 272.5568 14.34217116290008
IRIDIUM 154             
1 43574U 18061F   24038.56715803  .00000149  00000+0  46015-4 0  9994
2 43574  86.3928  56.4401 0002413  89.3047 270.8425 14.34217897290052
IRIDIUM 163             
1 43575U 18061G   24038.54813508  .00000195  00000+0  62560-4 0  9998
2 43575  86.3926  56.3903 0002268  89.1528 270.9927 14.34216461290028
IRIDIUM 156             
1 43576U 18061H   24038.59251209  .00000446  00000+0  15236-3 0  9994
2 43576  86.3920  56.3785 0002071  94.2975 265.8458 14.34216562290020
IRIDIUM 164             
1 43577U 18061J   24038.57349820  .00000136  00000+0  41345-4 0  9997
2 43577  86.3926  56.4127 0002321  96.7541 263.3919 14.34217461290060
